ONEWEB-0176             
1 48210U 21031A   24253.47181987  .00000024  00000+0  29468-4 0  9991
2 48210  87.8940  58.1124 0001725  93.0818 267.0510 13.14500260163483
ONEWEB-0184             
1 48211U 21031B   24253.52099386  .00000391  00000+0  10192-2 0  9998
2 48211  87.8936  58.0831 0002115 121.1114 239.0223 13.14499531163465
ONEWEB-0179             
1 48212U 21031C   24253.49085770 -.00000168  00000+0 -48868-3 0  9993
2 48212  87.8940  58.0952 0001857  90.6892 269.4450 13.14501679163501
ONEWEB-0180             
1 48213U 21031D   24253.44805113  .00000227  00000+0  57689-3 0  9995
2 48213  87.8937  58.0997 0001916  90.6011 269.5338 13.14502399163388
ONEWEB-0218             
1 48214U 21031E   24253.54636398  .00000188  00000+0  47216-3 0  9995
2 48214  87.8939  58.0818 0002447 115.5854 244.5529 13.14502444163550
ONEWEB-0209             
1 48215U 21031F   24253.53526654  .00000257  00000+0  65951-3 0  9991
2 48215  87.8942  58.1199 0001907  89.3191 270.8157 13.14502340163554
ONEWEB-0198             
1 48216U 21031G   24253.51939428  .00002140  00000+0  57357-2 0  9990
2 48216  87.8942  58.1270 0002303 101.6419 258.4970 13.14517740163664
ONEWEB-0189             
1 48217U 21031H   24253.53209007  .00000293  00000+0  75684-3 0  9997
2 48217  87.8939  58.0998 0002152  98.4994 261.6379 13.14500592163408
